     2.11           N: GPS NAV DATA                         RINEX VERSION / TYPE
teqc  2019Feb25                         20221121 12:26:09UTCPGM / RUN BY / DATE
OSX ker:10.11.6|Core i5|gcc 4.3 -m64|OSX ker:10.10+|=+      COMMENT
    4.6566D-09  1.4901D-08 -5.9605D-08 -1.1921D-07          ION ALPHA
    7.7824D+04  4.9152D+04 -6.5536D+04 -2.6214D+05          ION BETA
   -6.519258022308D-09-2.042810365310D-14   503808     1544 DELTA-UTC: A0,A1,T,W
                                                            END OF HEADER
19 09  8 13  0  0  0.0 1.537986099720D-05-1.591615728103D-12 0.000000000000D+00
    3.400000000000D+01-1.993750000000D+01 4.854487923193D-09-2.880386082133D+00
   -9.108334779739D-07 5.794600117952D-03 8.923932909966D-06 5.153637231827D+03
    3.456000000000D+05-9.126961231232D-08-2.748627772842D+00 1.862645149231D-09
    9.578033969732D-01 2.063750000000D+02-2.952239737892D-01-7.924972964077D-09
   -1.900079145923D-10 1.000000000000D+00 1.544000000000D+03 0.000000000000D+00
    2.000000000000D+00 0.000000000000D+00-1.443549990654D-08 3.400000000000D+01
    3.384180000000D+05 4.000000000000D+00
 8 09  8 13  0  0  0.0-2.163811586797D-04-1.705302565824D-12 0.000000000000D+00
    6.000000000000D+01-3.156250000000D+01 3.663724037383D-09 5.936263477659D-01
   -1.624226570129D-06 1.083453360479D-02 8.054077625275D-06 5.153633409500D+03
    3.456000000000D+05 2.570450305939D-07 1.428555219070D+00 4.842877388000D-08
    9.893643199323D-01 2.396250000000D+02 3.005716444955D+00-7.757465986739D-09
    3.332281660049D-10 1.000000000000D+00 1.544000000000D+03 0.000000000000D+00
    2.000000000000D+00 0.000000000000D+00-3.725290298462D-09 6.000000000000D+01
    3.384180000000D+05 4.000000000000D+00
18 09  8 13  0  0  0.0 4.644040018320D-06 2.955857780762D-12 0.000000000000D+00
    5.700000000000D+01 6.053125000000D+01 5.125213485714D-09-9.261321963234D-01
    3.097578883171D-06 1.082902692724D-02 3.485009074211D-06 5.153618207932D+03
    3.456000000000D+05 2.365559339523D-07-7.000630811687D-01 1.434236764908D-07
    9.411896449208D-01 3.042187500000D+02-2.394383143029D+00-8.630002331380D-09
   -1.710785546799D-10 1.000000000000D+00 1.544000000000D+03 0.000000000000D+00
    2.000000000000D+00 0.000000000000D+00-1.071020960808D-08 5.700000000000D+01
    3.384180000000D+05 4.000000000000D+00
11 09  8 13  0  0  0.0-1.481827348471D-05-1.705302565824D-12 0.000000000000D+00
    8.500000000000D+01 3.650000000000D+01 6.301333904422D-09 1.128070894692D+00
    2.197921276093D-06 9.631747496314D-03 1.018308103085D-05 5.153699039459D+03
    3.456000000000D+05-8.940696716309D-08-1.993571819240D+00 1.322478055954D-07
    8.890289570188D-01 1.447187500000D+02 7.134839296638D-01-8.930729143573D-09
   -3.350139546759D-10 1.000000000000D+00 1.544000000000D+03 0.000000000000D+00
    2.000000000000D+00 0.000000000000D+00-1.164153218269D-08 8.500000000000D+01
    3.384180000000D+05 4.000000000000D+00
28 09  8 13  0  0  0.0-2.618879079819D-05-1.136868377216D-13 0.000000000000D+00
    4.700000000000D+01-1.943750000000D+01 4.543760694443D-09-1.710661684817D+00
   -8.363276720047D-07 1.499664189760D-02 6.230548024178D-06 5.153648084641D+03
    3.456000000000D+05 2.533197402954D-07 2.444617242429D+00 7.636845111847D-08
    9.674165271815D-01 2.559062500000D+02-2.019648076529D+00-7.901043395886D-09
    4.293035965037D-10 1.000000000000D+00 1.544000000000D+03 0.000000000000D+00
    2.800000000000D+00 0.000000000000D+00-1.071020960808D-08 4.700000000000D+01
    3.384180000000D+05 4.000000000000D+00
22 09  8 13  0  0  0.0 1.934515312314D-04-9.094947017729D-13 0.000000000000D+00
    7.800000000000D+01 6.690625000000D+01 5.089140554560D-09-1.947393867948D+00
    3.386288881302D-06 5.274964612909D-03 3.827735781670D-06 5.153658788681D+03
    3.456000000000D+05 1.434236764908D-07-6.945390235039D-01-6.705522537231D-08
    9.388612849867D-01 2.972187500000D+02-1.898307209806D+00-8.445351782801D-09
   -1.389343586023D-10 1.000000000000D+00 1.544000000000D+03 0.000000000000D+00
    2.800000000000D+00 0.000000000000D+00-1.769512891769D-08 7.800000000000D+01
    3.384180000000D+05 4.000000000000D+00
15 09  8 13  0  0  0.0-3.139204345644D-04-1.932676241267D-12 0.000000000000D+00
    7.400000000000D+01-4.290625000000D+01 4.522331230391D-09-2.557288743969D+00
   -2.201646566391D-06 1.559427008033D-03 5.416572093964D-06 5.153646713257D+03
    3.456000000000D+05-7.450580596924D-09 3.038402291937D-01 9.313225746155D-09
    9.562349951858D-01 2.725000000000D+02-5.043455355588D-01-8.234628719625D-09
   -1.828647599084D-10 1.000000000000D+00 1.544000000000D+03 0.000000000000D+00
    2.000000000000D+00 0.000000000000D+00-9.778887033463D-09 7.400000000000D+01
    3.384180000000D+05 4.000000000000D+00
27 09  8 13  0  0  0.0 7.374817505479D-05 3.296918293927D-12 0.000000000000D+00
    1.130000000000D+02-3.328125000000D+01 3.844803008621D-09-2.619891622625D+00
   -1.870095729828D-06 2.130201412365D-02 8.277595043182D-06 5.153757644653D+03
    3.456000000000D+05 2.365559339523D-07 1.308864550274D+00 7.636845111847D-08
    9.751139851829D-01 2.180000000000D+02-1.560159434811D+00-7.421737716595D-09
    3.732298322349D-10 1.000000000000D+00 1.544000000000D+03 0.000000000000D+00
    4.000000000000D+00 0.000000000000D+00-4.190951585770D-09 1.130000000000D+02
    3.384180000000D+05 4.000000000000D+00
 3 09  8 13  0  0  0.0 4.329248331487D-04 5.115907697473D-12 0.000000000000D+00
    5.900000000000D+01-3.465625000000D+01 5.537730668710D-09 2.687752141082D+00
   -1.898035407066D-06 1.223092910368D-02 7.919967174530D-06 5.153642898560D+03
    3.456000000000D+05 1.490116119385D-08-2.938022838136D+00-1.713633537292D-07
    9.268186867242D-01 2.090000000000D+02 9.245636365409D-01-8.193912737927D-09
   -1.582208762489D-10 1.000000000000D+00 1.544000000000D+03 0.000000000000D+00
    2.800000000000D+00 0.000000000000D+00-4.190951585770D-09 5.900000000000D+01
    3.384180000000D+05 4.000000000000D+00
26 09  8 13  0  0  0.0 6.454018875957D-05-2.273736754432D-13 0.000000000000D+00
    7.400000000000D+01-5.103125000000D+01 3.713726120171D-09 8.658439100800D-01
   -2.505257725716D-06 2.020760730375D-02 6.519258022308D-06 5.154915718079D+03
    3.456000000000D+05-2.961605787277D-07 3.761716710714D-01-3.725290298462D-09
    9.926608697725D-01 2.782812500000D+02 1.030809561539D+00-8.065693111350D-09
   -4.385896975928D-10 1.000000000000D+00 1.544000000000D+03 0.000000000000D+00
    2.000000000000D+00 0.000000000000D+00-6.519258022308D-09 7.400000000000D+01
    3.389280000000D+05 4.000000000000D+00
17 09  8 13  0  0  0.0 7.692119106650D-05 2.614797267597D-12 0.000000000000D+00
    3.700000000000D+01-2.918750000000D+01 4.815200572432D-09-2.254258849969D+00
   -1.471489667892D-06 4.613221157342D-03 8.471310138702D-06 5.153717866898D+03
    3.456000000000D+05 1.005828380585D-07-2.804436181144D+00-1.266598701477D-07
    9.601268458913D-01 2.146875000000D+02-2.635803288107D+00-8.051763959717D-09
   -1.714357124141D-10 1.000000000000D+00 1.544000000000D+03 0.000000000000D+00
    2.000000000000D+00 0.000000000000D+00-1.024454832077D-08 3.700000000000D+01
    3.392880000000D+05 4.000000000000D+00
 9 09  8 13  0  0  0.0 7.165735587478D-05 2.046363078989D-12 0.000000000000D+00
    1.000000000000D+00-3.309375000000D+01 4.017667351972D-09 3.482371859794D-01
   -1.927837729454D-06 2.075352426618D-02 8.959323167801D-06 5.153631574631D+03
    3.456000000000D+05-3.278255462646D-07 1.333110518570D+00-1.415610313416D-07
    9.770565063253D-01 2.198437500000D+02 1.503195760103D+00-8.147482232481D-09
    1.850077063136D-10 1.000000000000D+00 1.544000000000D+03 0.000000000000D+00
    2.800000000000D+00 0.000000000000D+00-5.587935447693D-09 2.570000000000D+02
    3.404880000000D+05 4.000000000000D+00
32 09  8 13  0  0  0.0 2.160058356822D-04-6.593836587854D-12 0.000000000000D+00
    4.600000000000D+01 6.712500000000D+01 4.521974072657D-09 2.028219197985D+00
    3.347173333168D-06 1.323569996748D-02 3.814697265625D-06 5.153754001617D+03
    3.456000000000D+05 1.583248376846D-07-6.427576995182D-01 7.450580596924D-09
    9.629209170184D-01 2.998750000000D+02-1.134671932166D+00-8.103194673441D-09
   -2.207234797332D-10 1.000000000000D+00 1.544000000000D+03 0.000000000000D+00
    2.000000000000D+00 0.000000000000D+00-3.259629011154D-09 4.600000000000D+01
    3.408780000000D+05 4.000000000000D+00
14 09  8 13  0  0  0.0-6.608571857214D-05 5.456968210638D-12 0.000000000000D+00
    5.000000000000D+01-5.778125000000D+01 3.678367504485D-09-2.754405918897D+00
   -2.855435013771D-06 4.765786579810D-03 5.843117833138D-06 5.153635847092D+03
    3.456000000000D+05-3.166496753693D-08 3.587192134551D-01 2.048909664154D-08
    9.883055739341D-01 2.809062500000D+02-2.166775251641D+00-7.753894409397D-09
   -1.764359206929D-10 1.000000000000D+00 1.544000000000D+03 0.000000000000D+00
    2.000000000000D+00 0.000000000000D+00-9.313225746155D-09 5.000000000000D+01
    3.416280000000D+05 4.000000000000D+00
20 09  8 13  0  0  0.0 7.491279393435D-05-9.094947017729D-13 0.000000000000D+00
    6.700000000000D+01 6.693750000000D+01 5.158429154994D-09-7.395619175853D-01
    3.425404429436D-06 3.839080338366D-03 4.472211003304D-06 5.153793849945D+03
    3.456000000000D+05-9.313225746155D-08-7.539374356976D-01 2.235174179077D-08
    9.408471743356D-01 2.798125000000D+02 1.340539324832D+00-8.595358031163D-09
   -1.332198348551D-10 1.000000000000D+00 1.544000000000D+03 0.000000000000D+00
    2.000000000000D+00 0.000000000000D+00-6.519258022308D-09 6.700000000000D+01
    3.426780000000D+05 4.000000000000D+00
